0 FENGYUN 1C DEB
1 30684U 99025AQS 13281.46191975  .00000969  00000-0  11020-2 0  3346
2 30684 099.7969 279.1475 0248369 054.1647 097.6162 13.60271073331330
0 FENGYUN 1C DEB
1 30684U 99025AQS 13282.49104973  .00001043  00000-0  11827-2 0  3352
2 30684 099.7968 280.1786 0248379 051.5842 097.2265 13.60275766331473
0 FENGYUN 1C DEB
1 30684U 99025AQS 13285.50797091  .00000969  00000-0  11032-2 0  3372
2 30684 099.7966 283.2013 0248299 044.0012 111.0616 13.60281537331888
0 FENGYUN 1C DEB
1 30684U 99025AQS 13286.96096730  .00001096  00000-0  12415-2 0  3384
2 30684 099.7960 284.6566 0248276 040.3357 026.4040 13.60283548332083
0 FENGYUN 1C DEB
1 30684U 99025AQS 13288.94868234  .00001165  00000-0  13161-2 0  3397
2 30684 099.7965 286.6482 0248255 035.3537 040.2676 13.60289590332350
0 FENGYUN 1C DEB
1 30684U 99025AQS 13289.97400469  .00001086  00000-0  12304-2 0  3405
2 30684 099.7968 287.6754 0248290 032.7800 021.2996 13.60291174332499
0 FENGYUN 1C DEB
1 30684U 99025AQS 13291.95533769  .00001129  00000-0  12776-2 0  3418
2 30684 099.7973 289.6601 0248245 027.7992 003.9805 13.60295035332760
0 FENGYUN 1C DEB
1 30684U 99025AQS 13293.94092984  .00001169  00000-0  13211-2 0  3428
2 30684 099.7977 291.6492 0248213 022.8140 007.5416 13.60299848333036
0 FENGYUN 1C DEB
1 30684U 99025AQS 13294.97002229  .00001227  00000-0  13843-2 0  3432
2 30684 099.7975 292.6800 0248117 020.1881 007.1199 13.60301774333175
